{
  "type": "FeatureCollection",
  "features": [
    {
      "type": "Feature",
      "properties": {
        "norad_id": 36036,
        "name": "SMOS",
        "group": "resource",
        "lat": 17.265271704937163,
        "lon": -14.514889296260403,
        "alt_km": 759.671859889977,
        "timestamp": "2025-12-03T15:48:02.758453+00:00",
        "meta_object_name": "SMOS",
        "meta_object_id": "2009-059A",
        "meta_epoch": "2025-12-03T06:42:34.231104",
        "meta_mean_motion": 14.39788463,
        "meta_eccentricity": 0.00010314,
        "meta_inclination": 98.4384,
        "meta_ra_of_asc_node": 162.4676,
        "meta_arg_of_pericenter": 72.1929,
        "meta_mean_anomaly": 287.9372,
        "meta_ephemeris_type": 0,
        "meta_classification_type": "U",
        "meta_norad_cat_id": 36036,
        "meta_element_set_no": 999,
        "meta_rev_at_epoch": 84526,
        "meta_bstar": 0.00020678744,
        "meta_mean_motion_dot": 6.05e-06,
        "meta_mean_motion_ddot": 0,
        "tle_line1": "1 36036U 09059A   25337.27956286  .00000605  00000+0  20679-3 0  9993",
        "tle_line2": "2 36036  98.4384 162.4676 0001031  72.1929 287.9372 14.39788463845269"
      },
      "geometry": {
        "type": "Point",
        "coordinates": [
          -14.514889296260403,
          17.265271704937163
        ]
      }
    },
    {
      "type": "Feature",
      "properties": {
        "norad_id": 36110,
        "name": "YAOGAN-7",
        "group": "resource",
        "lat": -7.607127720361104,
        "lon": 38.36700333122689,
        "alt_km": 649.9309998419085,
        "timestamp": "2025-12-03T15:48:02.758463+00:00",
        "meta_object_name": "YAOGAN-7",
        "meta_object_id": "2009-069A",
        "meta_epoch": "2025-12-03T06:49:37.585920",
        "meta_mean_motion": 14.77708999,
        "meta_eccentricity": 0.00238023,
        "meta_inclination": 98.0303,
        "meta_ra_of_asc_node": 219.0749,
        "meta_arg_of_pericenter": 313.2109,
        "meta_mean_anomaly": 46.7113,
        "meta_ephemeris_type": 0,
        "meta_classification_type": "U",
        "meta_norad_cat_id": 36110,
        "meta_element_set_no": 999,
        "meta_rev_at_epoch": 86069,
        "meta_bstar": 0.00015998763,
        "meta_mean_motion_dot": 1.098e-05,
        "meta_mean_motion_ddot": 0,
        "tle_line1": "1 36110U 09069A   25337.28446280  .00001098  00000+0  15999-3 0  9992",
        "tle_line2": "2 36110  98.0303 219.0749 0023802 313.2109  46.7113 14.77708999860694"
      },
      "geometry": {
        "type": "Point",
        "coordinates": [
          38.36700333122689,
          -7.607127720361104
        ]
      }
    },
    {
      "type": "Feature",
      "properties": {
        "norad_id": 36605,
        "name": "TANDEM-X",
        "group": "resource",
        "lat": 18.247351576831054,
        "lon": 165.64183409173933,
        "alt_km": 508.39168058110135,
        "timestamp": "2025-12-03T15:48:02.758472+00:00",
        "meta_object_name": "TANDEM-X",
        "meta_object_id": "2010-030A",
        "meta_epoch": "2025-12-02T15:22:47.718912",
        "meta_mean_motion": 15.19155178,
        "meta_eccentricity": 0.00017925,
        "meta_inclination": 97.4443,
        "meta_ra_of_asc_node": 342.1684,
        "meta_arg_of_pericenter": 94.9925,
        "meta_mean_anomaly": 265.1514,
        "meta_ephemeris_type": 0,
        "meta_classification_type": "U",
        "meta_norad_cat_id": 36605,
        "meta_element_set_no": 999,
        "meta_rev_at_epoch": 85680,
        "meta_bstar": 9.0053561e-05,
        "meta_mean_motion_dot": 1.825e-05,
        "meta_mean_motion_ddot": 0,
        "tle_line1": "1 36605U 10030A   25336.64083008  .00001825  00000+0  90054-4 0  9999",
        "tle_line2": "2 36605  97.4443 342.1684 0001792  94.9925 265.1514 15.19155178856802"
      },
      "geometry": {
        "type": "Point",
        "coordinates": [
          165.64183409173933,
          18.247351576831054
        ]
      }
    },
    {
      "type": "Feature",
      "properties": {
        "norad_id": 36795,
        "name": "CARTOSAT-2B",
        "group": "resource",
        "lat": 78.21521744873333,
        "lon": -14.002438475924968,
        "alt_km": 617.6062494515791,
        "timestamp": "2025-12-03T15:48:02.758481+00:00",
        "meta_object_name": "CARTOSAT-2B",
        "meta_object_id": "2010-035A",
        "meta_epoch": "2025-12-03T08:56:23.173152",
        "meta_mean_motion": 14.78764884,
        "meta_eccentricity": 0.00128703,
        "meta_inclination": 97.7866,
        "meta_ra_of_asc_node": 26.7066,
        "meta_arg_of_pericenter": 105.0523,
        "meta_mean_anomaly": 255.2113,
        "meta_ephemeris_type": 0,
        "meta_classification_type": "U",
        "meta_norad_cat_id": 36795,
        "meta_element_set_no": 999,
        "meta_rev_at_epoch": 83091,
        "meta_bstar": 0.00016714691,
        "meta_mean_motion_dot": 1.179e-05,
        "meta_mean_motion_ddot": 0,
        "tle_line1": "1 36795U 10035A   25337.37249043  .00001179  00000+0  16715-3 0  9991",
        "tle_line2": "2 36795  97.7866  26.7066 0012870 105.0523 255.2113 14.78764884830913"
      },
      "geometry": {
        "type": "Point",
        "coordinates": [
          -14.002438475924968,
          78.21521744873333
        ]
      }
    },
    {
      "type": "Feature",
      "properties": {
        "norad_id": 36834,
        "name": "YAOGAN-10",
        "group": "resource",
        "lat": -28.272171752487445,
        "lon": 1.8382787915466345,
        "alt_km": 621.2499652066217,
        "timestamp": "2025-12-03T15:48:02.758491+00:00",
        "meta_object_name": "YAOGAN-10",
        "meta_object_id": "2010-038A",
        "meta_epoch": "2025-12-03T08:22:30.264096",
        "meta_mean_motion": 14.84551566,
        "meta_eccentricity": 0.00015047,
        "meta_inclination": 97.9151,
        "meta_ra_of_asc_node": 357.2401,
        "meta_arg_of_pericenter": 84.5109,
        "meta_mean_anomaly": 34.4842,
        "meta_ephemeris_type": 0,
        "meta_classification_type": "U",
        "meta_norad_cat_id": 36834,
        "meta_element_set_no": 999,
        "meta_rev_at_epoch": 82814,
        "meta_bstar": 0.00021390439,
        "meta_mean_motion_dot": 1.751e-05,
        "meta_mean_motion_ddot": 0,
        "tle_line1": "1 36834U 10038A   25337.34896139  .00001751  00000+0  21390-3 0  9990",
        "tle_line2": "2 36834  97.9151 357.2401 0001504  84.5109  34.4842 14.84551566828140"
      },
      "geometry": {
        "type": "Point",
        "coordinates": [
          1.8382787915466345,
          -28.272171752487445
        ]
      }
    },
    {
      "type": "Feature",
      "properties": {
        "norad_id": 37216,
        "name": "COSMO-SKYMED 4",
        "group": "resource",
        "lat": -26.07227959057377,
        "lon": 163.00445804220132,
        "alt_km": 628.5613923981691,
        "timestamp": "2025-12-03T15:48:02.758500+00:00",
        "meta_object_name": "COSMO-SKYMED 4",
        "meta_object_id": "2010-060A",
        "meta_epoch": "2025-12-03T07:49:05.016864",
        "meta_mean_motion": 14.82149498,
        "meta_eccentricity": 0.00014136,
        "meta_inclination": 97.8807,
        "meta_ra_of_asc_node": 158.7909,
        "meta_arg_of_pericenter": 83.0385,
        "meta_mean_anomaly": 277.0989,
        "meta_ephemeris_type": 0,
        "meta_classification_type": "U",
        "meta_norad_cat_id": 37216,
        "meta_element_set_no": 999,
        "meta_rev_at_epoch": 81555,
        "meta_bstar": 0.00011506336,
        "meta_mean_motion_dot": 8.64e-06,
        "meta_mean_motion_ddot": 0,
        "tle_line1": "1 37216U 10060A   25337.32575251  .00000864  00000+0  11506-3 0  9999",
        "tle_line2": "2 37216  97.8807 158.7909 0001413  83.0385 277.0989 14.82149498815551"
      },
      "geometry": {
        "type": "Point",
        "coordinates": [
          163.00445804220132,
          -26.07227959057377
        ]
      }
    },
    {
      "type": "Feature",
      "properties": {
        "norad_id": 37387,
        "name": "RESOURCESAT-2",
        "group": "resource",
        "lat": 63.13670866905212,
        "lon": -120.96514851355101,
        "alt_km": 810.6189126218114,
        "timestamp": "2025-12-03T15:48:02.758509+00:00",
        "meta_object_name": "RESOURCESAT-2",
        "meta_object_id": "2011-015A",
        "meta_epoch": "2025-12-03T08:30:12.480768",
        "meta_mean_motion": 14.21591048,
        "meta_eccentricity": 0.00067862,
        "meta_inclination": 98.789,
        "meta_ra_of_asc_node": 40.9478,
        "meta_arg_of_pericenter": 66.6926,
        "meta_mean_anomaly": 293.4965,
        "meta_ephemeris_type": 0,
        "meta_classification_type": "U",
        "meta_norad_cat_id": 37387,
        "meta_element_set_no": 999,
        "meta_rev_at_epoch": 75835,
        "meta_bstar": 0.000137039,
        "meta_mean_motion_dot": 2.56e-06,
        "meta_mean_motion_ddot": 0,
        "tle_line1": "1 37387U 11015A   25337.35431112  .00000256  00000+0  13704-3 0  9996",
        "tle_line2": "2 37387  98.7890  40.9478 0006786  66.6926 293.4965 14.21591048758356"
      },
      "geometry": {
        "type": "Point",
        "coordinates": [
          -120.96514851355101,
          63.13670866905212
        ]
      }
    }
  ]
}